[{"OBJECT_NAME":"STARLINK-34967","OBJECT_ID":"2025-175D","EPOCH":"2026-03-09T14:27:26.539200","MEAN_MOTION":15.05636344,"ECCENTRICITY":0.0001791,"INCLINATION":97.6027,"RA_OF_ASC_NODE":302.5138,"ARG_OF_PERICENTER":82.5873,"MEAN_ANOMALY":277.5557,"EPHEMERIS_TYPE":0,"CLASSIFICATION_TYPE":"U","NORAD_CAT_ID":65177,"ELEMENT_SET_NO":999,"REV_AT_EPOCH":3262,"BSTAR":-0.00019633,"MEAN_MOTION_DOT":-2.892e-5,"MEAN_MOTION_DDOT":0},{"OBJECT_NAME":"OBJECT B","OBJECT_ID":"2025-226B","EPOCH":"2026-03-09T23:02:31.139232","MEAN_MOTION":15.09715314,"ECCENTRICITY":0.00204156,"INCLINATION":97.6443,"RA_OF_ASC_NODE":147.8366,"ARG_OF_PERICENTER":114.3969,"MEAN_ANOMALY":245.9393,"EPHEMERIS_TYPE":0,"CLASSIFICATION_TYPE":"U","NORAD_CAT_ID":65939,"ELEMENT_SET_NO":999,"REV_AT_EPOCH":2260,"BSTAR":0.00038297064,"MEAN_MOTION_DOT":6.14e-5,"MEAN_MOTION_DDOT":0}]
